[{"OBJECT_NAME":"239ALFEROV (RS61S)","OBJECT_ID":"2025-155F","EPOCH":"2026-03-09T21:46:33.382848","MEAN_MOTION":15.29933217,"ECCENTRICITY":0.00084878,"INCLINATION":97.4469,"RA_OF_ASC_NODE":37.6373,"ARG_OF_PERICENTER":151.5904,"MEAN_ANOMALY":208.58,"EPHEMERIS_TYPE":0,"CLASSIFICATION_TYPE":"U","NORAD_CAT_ID":64881,"ELEMENT_SET_NO":999,"REV_AT_EPOCH":6561,"BSTAR":0.00067233359,"MEAN_MOTION_DOT":0.00019457,"MEAN_MOTION_DDOT":0},{"OBJECT_NAME":"STARLINK-35694","OBJECT_ID":"2025-257K","EPOCH":"2026-03-09T16:04:04.417248","MEAN_MOTION":15.30200096,"ECCENTRICITY":0.00012687,"INCLINATION":53.1607,"RA_OF_ASC_NODE":216.8869,"ARG_OF_PERICENTER":78.5683,"MEAN_ANOMALY":281.546,"EPHEMERIS_TYPE":0,"CLASSIFICATION_TYPE":"U","NORAD_CAT_ID":66389,"ELEMENT_SET_NO":999,"REV_AT_EPOCH":1973,"BSTAR":0.00083579024,"MEAN_MOTION_DOT":0.00024476,"MEAN_MOTION_DDOT":0}]
